UNKNOWN                 
1 85246U          25337.47189920  .00003176  00000+0  11437-2 0  9999
2 85246  97.9861 341.8391 0222946 331.6263  27.2920 14.21438804621753
UNKNOWN                 
1 85373U          25336.91821851  .00003030  00000+0  20761-2 0  9993
2 85373 100.4275  11.6439 0050871 262.7755 221.3745 13.99927178610755
UNKNOWN                 
1 87014U          25335.40119760  .00002713  00000+0  41850-2 0  9998
2 87014 100.4939 299.0589 0051986 274.4699 237.9272 13.51786803589387
UNKNOWN                 
1 87029U          25336.55533337  .00001234  00000+0  77827-3 0  9992
2 87029  98.7581  12.1757 0081014 278.7103  80.4895 14.04451333591570
UNKNOWN                 
1 87042U          25336.36812589  .00000929  00000+0  57573-3 0  9991
2 87042  98.7153  19.9553 0044284 124.4226 236.1141 14.07081198552505
UNKNOWN                 
1 87051U          25337.24101874  .00001335  00000+0  48221-3 0  9999
2 87051  65.7285 276.9656 0715599 145.7618 219.1793 13.45809196587306
UNKNOWN                 
1 87054U          25336.94272669  .00002760  00000+0  15644-2 0  9994
2 87054 100.0924 215.1619 0013870  10.7798 349.3664 14.10990557614948
UNKNOWN                 
1 87071U          25337.20615614  .00005418  00000+0  19571-2 0  9990
2 87071  61.2208 300.1579 0479209 232.7392 122.9022 13.85509364601164
UNKNOWN                 
1 87129U          25337.18793910  .00000174  00000+0  15886-2 0  9996
2 87129 102.2628  68.0410 0031323 108.7500 251.6967 12.42810900545481
UNKNOWN                 
1 87159U          25336.51659678  .00001561  00000+0  18214-2 0  9996
2 87159  90.3494  69.0344 0103728 286.3440  72.6334 13.66020359555291
UNKNOWN                 
1 87163U          25336.22607479  .00004022  00000+0  12319-2 0  9996
2 87163  65.6019 262.2334 0642268  69.3433 297.5258 13.63805497576082
UNKNOWN                 
1 87164U          25334.35109537  .00004323  00000+0  89950-3 0  9991
2 87164  65.2051   3.6842 0097485  60.3151 300.7609 14.58199933633963
