CCSDS_OMM_VERS = 2.0
CREATION_DATE  = 
ORIGINATOR     = 

OBJECT_NAME    = UNKNOWN
OBJECT_ID      = 
CENTER_NAME    = EARTH
REF_FRAME      = TEME
TIME_SYSTEM    = UTC
MEAN_ELEMENT_THEORY = SGP/SGP4

EPOCH          = 2025-12-03T11:19:32.090880
MEAN_MOTION    = 14.21438804
ECCENTRICITY   = .0222946
INCLINATION    = 97.9861
RA_OF_ASC_NODE = 341.8391
ARG_OF_PERICENTER = 331.6263
MEAN_ANOMALY   = 27.2920

EPHEMERIS_TYPE = 0
CLASSIFICATION_TYPE = U
NORAD_CAT_ID   = 85246
ELEMENT_SET_NO = 999
REV_AT_EPOCH   = 62175
BSTAR          = .11437E-2
MEAN_MOTION_DOT = .3176E-4
MEAN_MOTION_DDOT = 0

CCSDS_OMM_VERS = 2.0
CREATION_DATE  = 
ORIGINATOR     = 

OBJECT_NAME    = UNKNOWN
OBJECT_ID      = 
CENTER_NAME    = EARTH
REF_FRAME      = TEME
TIME_SYSTEM    = UTC
MEAN_ELEMENT_THEORY = SGP/SGP4

EPOCH          = 2025-12-02T22:02:14.079264
MEAN_MOTION    = 13.99927178
ECCENTRICITY   = .0050871
INCLINATION    = 100.4275
RA_OF_ASC_NODE = 11.6439
ARG_OF_PERICENTER = 262.7755
MEAN_ANOMALY   = 221.3745

EPHEMERIS_TYPE = 0
CLASSIFICATION_TYPE = U
NORAD_CAT_ID   = 85373
ELEMENT_SET_NO = 999
REV_AT_EPOCH   = 61075
BSTAR          = .20761E-2
MEAN_MOTION_DOT = .303E-4
MEAN_MOTION_DDOT = 0

CCSDS_OMM_VERS = 2.0
CREATION_DATE  = 
ORIGINATOR     = 

OBJECT_NAME    = UNKNOWN
OBJECT_ID      = 
CENTER_NAME    = EARTH
REF_FRAME      = TEME
TIME_SYSTEM    = UTC
MEAN_ELEMENT_THEORY = SGP/SGP4

EPOCH          = 2025-12-01T09:37:43.472640
MEAN_MOTION    = 13.51786803
ECCENTRICITY   = .0051986
INCLINATION    = 100.4939
RA_OF_ASC_NODE = 299.0589
ARG_OF_PERICENTER = 274.4699
MEAN_ANOMALY   = 237.9272

EPHEMERIS_TYPE = 0
CLASSIFICATION_TYPE = U
NORAD_CAT_ID   = 87014
ELEMENT_SET_NO = 999
REV_AT_EPOCH   = 58938
BSTAR          = .4185E-2
MEAN_MOTION_DOT = .2713E-4
MEAN_MOTION_DDOT = 0

CCSDS_OMM_VERS = 2.0
CREATION_DATE  = 
ORIGINATOR     = 

OBJECT_NAME    = UNKNOWN
OBJECT_ID      = 
CENTER_NAME    = EARTH
REF_FRAME      = TEME
TIME_SYSTEM    = UTC
MEAN_ELEMENT_THEORY = SGP/SGP4

EPOCH          = 2025-12-02T13:19:40.803168
MEAN_MOTION    = 14.04451333
ECCENTRICITY   = .0081014
INCLINATION    = 98.7581
RA_OF_ASC_NODE = 12.1757
ARG_OF_PERICENTER = 278.7103
MEAN_ANOMALY   = 80.4895

EPHEMERIS_TYPE = 0
CLASSIFICATION_TYPE = U
NORAD_CAT_ID   = 87029
ELEMENT_SET_NO = 999
REV_AT_EPOCH   = 59157
BSTAR          = .77827E-3
MEAN_MOTION_DOT = .1234E-4
MEAN_MOTION_DDOT = 0

CCSDS_OMM_VERS = 2.0
CREATION_DATE  = 
ORIGINATOR     = 

OBJECT_NAME    = UNKNOWN
OBJECT_ID      = 
CENTER_NAME    = EARTH
REF_FRAME      = TEME
TIME_SYSTEM    = UTC
MEAN_ELEMENT_THEORY = SGP/SGP4

EPOCH          = 2025-12-02T08:50:06.076896
MEAN_MOTION    = 14.07081198
ECCENTRICITY   = .0044284
INCLINATION    = 98.7153
RA_OF_ASC_NODE = 19.9553
ARG_OF_PERICENTER = 124.4226
MEAN_ANOMALY   = 236.1141

EPHEMERIS_TYPE = 0
CLASSIFICATION_TYPE = U
NORAD_CAT_ID   = 87042
ELEMENT_SET_NO = 999
REV_AT_EPOCH   = 55250
BSTAR          = .57573E-3
MEAN_MOTION_DOT = .929E-5
MEAN_MOTION_DDOT = 0

CCSDS_OMM_VERS = 2.0
CREATION_DATE  = 
ORIGINATOR     = 

OBJECT_NAME    = UNKNOWN
OBJECT_ID      = 
CENTER_NAME    = EARTH
REF_FRAME      = TEME
TIME_SYSTEM    = UTC
MEAN_ELEMENT_THEORY = SGP/SGP4

EPOCH          = 2025-12-03T05:47:04.019136
MEAN_MOTION    = 13.45809196
ECCENTRICITY   = .0715599
INCLINATION    = 65.7285
RA_OF_ASC_NODE = 276.9656
ARG_OF_PERICENTER = 145.7618
MEAN_ANOMALY   = 219.1793

EPHEMERIS_TYPE = 0
CLASSIFICATION_TYPE = U
NORAD_CAT_ID   = 87051
ELEMENT_SET_NO = 999
REV_AT_EPOCH   = 58730
BSTAR          = .48221E-3
MEAN_MOTION_DOT = .1335E-4
MEAN_MOTION_DDOT = 0

CCSDS_OMM_VERS = 2.0
CREATION_DATE  = 
ORIGINATOR     = 

OBJECT_NAME    = UNKNOWN
OBJECT_ID      = 
CENTER_NAME    = EARTH
REF_FRAME      = TEME
TIME_SYSTEM    = UTC
MEAN_ELEMENT_THEORY = SGP/SGP4

EPOCH          = 2025-12-02T22:37:31.586016
MEAN_MOTION    = 14.10990557
ECCENTRICITY   = .001387
INCLINATION    = 100.0924
RA_OF_ASC_NODE = 215.1619
ARG_OF_PERICENTER = 10.7798
MEAN_ANOMALY   = 349.3664

EPHEMERIS_TYPE = 0
CLASSIFICATION_TYPE = U
NORAD_CAT_ID   = 87054
ELEMENT_SET_NO = 999
REV_AT_EPOCH   = 61494
BSTAR          = .15644E-2
MEAN_MOTION_DOT = .276E-4
MEAN_MOTION_DDOT = 0

CCSDS_OMM_VERS = 2.0
CREATION_DATE  = 
ORIGINATOR     = 

OBJECT_NAME    = UNKNOWN
OBJECT_ID      = 
CENTER_NAME    = EARTH
REF_FRAME      = TEME
TIME_SYSTEM    = UTC
MEAN_ELEMENT_THEORY = SGP/SGP4

EPOCH          = 2025-12-03T04:56:51.890496
MEAN_MOTION    = 13.85509364
ECCENTRICITY   = .0479209
INCLINATION    = 61.2208
RA_OF_ASC_NODE = 300.1579
ARG_OF_PERICENTER = 232.7392
MEAN_ANOMALY   = 122.9022

EPHEMERIS_TYPE = 0
CLASSIFICATION_TYPE = U
NORAD_CAT_ID   = 87071
ELEMENT_SET_NO = 999
REV_AT_EPOCH   = 60116
BSTAR          = .19571E-2
MEAN_MOTION_DOT = .5418E-4
MEAN_MOTION_DDOT = 0

CCSDS_OMM_VERS = 2.0
CREATION_DATE  = 
ORIGINATOR     = 

OBJECT_NAME    = UNKNOWN
OBJECT_ID      = 
CENTER_NAME    = EARTH
REF_FRAME      = TEME
TIME_SYSTEM    = UTC
MEAN_ELEMENT_THEORY = SGP/SGP4

EPOCH          = 2025-12-03T04:30:37.938240
MEAN_MOTION    = 12.42810900
ECCENTRICITY   = .0031323
INCLINATION    = 102.2628
RA_OF_ASC_NODE = 68.0410
ARG_OF_PERICENTER = 108.7500
MEAN_ANOMALY   = 251.6967

EPHEMERIS_TYPE = 0
CLASSIFICATION_TYPE = U
NORAD_CAT_ID   = 87129
ELEMENT_SET_NO = 999
REV_AT_EPOCH   = 54548
BSTAR          = .15886E-2
MEAN_MOTION_DOT = .174E-5
MEAN_MOTION_DDOT = 0

CCSDS_OMM_VERS = 2.0
CREATION_DATE  = 
ORIGINATOR     = 

OBJECT_NAME    = UNKNOWN
OBJECT_ID      = 
CENTER_NAME    = EARTH
REF_FRAME      = TEME
TIME_SYSTEM    = UTC
MEAN_ELEMENT_THEORY = SGP/SGP4

EPOCH          = 2025-12-02T12:23:53.961792
MEAN_MOTION    = 13.66020359
ECCENTRICITY   = .0103728
INCLINATION    = 90.3494
RA_OF_ASC_NODE = 69.0344
ARG_OF_PERICENTER = 286.3440
MEAN_ANOMALY   = 72.6334

EPHEMERIS_TYPE = 0
CLASSIFICATION_TYPE = U
NORAD_CAT_ID   = 87159
ELEMENT_SET_NO = 999
REV_AT_EPOCH   = 55529
BSTAR          = .18214E-2
MEAN_MOTION_DOT = .1561E-4
MEAN_MOTION_DDOT = 0

CCSDS_OMM_VERS = 2.0
CREATION_DATE  = 
ORIGINATOR     = 

OBJECT_NAME    = UNKNOWN
OBJECT_ID      = 
CENTER_NAME    = EARTH
REF_FRAME      = TEME
TIME_SYSTEM    = UTC
MEAN_ELEMENT_THEORY = SGP/SGP4

EPOCH          = 2025-12-02T05:25:32.861856
MEAN_MOTION    = 13.63805497
ECCENTRICITY   = .0642268
INCLINATION    = 65.6019
RA_OF_ASC_NODE = 262.2334
ARG_OF_PERICENTER = 69.3433
MEAN_ANOMALY   = 297.5258

EPHEMERIS_TYPE = 0
CLASSIFICATION_TYPE = U
NORAD_CAT_ID   = 87163
ELEMENT_SET_NO = 999
REV_AT_EPOCH   = 57608
BSTAR          = .12319E-2
MEAN_MOTION_DOT = .4022E-4
MEAN_MOTION_DDOT = 0

CCSDS_OMM_VERS = 2.0
CREATION_DATE  = 
ORIGINATOR     = 

OBJECT_NAME    = UNKNOWN
OBJECT_ID      = 
CENTER_NAME    = EARTH
REF_FRAME      = TEME
TIME_SYSTEM    = UTC
MEAN_ELEMENT_THEORY = SGP/SGP4

EPOCH          = 2025-11-30T08:25:34.639968
MEAN_MOTION    = 14.58199933
ECCENTRICITY   = .0097485
INCLINATION    = 65.2051
RA_OF_ASC_NODE = 3.6842
ARG_OF_PERICENTER = 60.3151
MEAN_ANOMALY   = 300.7609

EPHEMERIS_TYPE = 0
CLASSIFICATION_TYPE = U
NORAD_CAT_ID   = 87164
ELEMENT_SET_NO = 999
REV_AT_EPOCH   = 63396
BSTAR          = .8995E-3
MEAN_MOTION_DOT = .4323E-4
MEAN_MOTION_DDOT = 0

